STARLINK-5123           
1 53979U 22125R   26161.30176360  .00001071  00000+0  85417-4 0  9994
2 53979  53.1634 163.3094 0001150  65.5630 294.5481 15.08831295203375
STARLINK-5133           
1 53980U 22125S   26161.27594186 -.00003194  00000+0 -18271-3 0  9995
2 53980  53.1618 163.1514 0001313  81.9217 278.1923 15.08836894203377
STARLINK-5149           
1 53981U 22125T   26161.14302154  .00000065  00000+0  22156-4 0  9994
2 53981  53.1636 148.8058 0001267  91.3873 268.7264 15.08830668203569
STARLINK-5120           
1 53982U 22125U   26161.17157310 -.00000089  00000+0  12491-4 0  9998
2 53982  53.1634 158.9381 0001585  89.4313 270.6861 15.08832869203413
STARLINK-5142           
1 53984U 22125W   26161.24886454 -.00000068  00000+0  13823-4 0  9993
2 53984  53.1636 158.7072 0001346  75.3420 284.7720 15.08834909203439
STARLINK-5147           
1 53985U 22125X   26161.25623391  .00000196  00000+0  30433-4 0  9991
2 53985  53.1621 158.7532 0001250  82.3019 277.8114 15.08834414203432
STARLINK-5119           
1 53986U 22125Y   26161.26812895  .00000137  00000+0  26729-4 0  9990
2 53986  53.1623 148.1482 0001305  83.1505 276.9635 15.08831961203579
STARLINK-5113           
1 53988U 22125AA  26161.17894222 -.00000656  00000+0 -23114-4 0  9999
2 53988  53.1628 158.9815 0001437  82.0239 278.0915 15.08831466203410
STARLINK-5118           
1 53991U 22125AD  26161.23138435  .00000027  00000+0  19830-4 0  9997
2 53991  53.1653 148.5659 0001452  89.7322 270.3836 15.08821908203560
STARLINK-5108           
1 53992U 22125AE  26161.16789152 -.00000208  00000+0  50064-5 0  9995
2 53992  53.1632 158.9130 0001197  82.9498 277.1630 15.08829012203417
STARLINK-5121           
1 53993U 22125AF  26161.27690048 -.00001715  00000+0 -89685-4 0  9998
2 53993  53.1610 153.1803 0000969  94.1082 266.0020 15.08842831203502
STARLINK-5125           
1 53994U 22125AG  26161.28931262 -.00002950  00000+0 -16734-3 0  9992
2 53994  53.1609 158.2495 0001266  96.2717 263.8418 15.08842446203444
STARLINK-5097           
1 53995U 22125AH  26161.29668182 -.00002228  00000+0 -12192-3 0  9994
2 53995  53.1611 158.2995 0001239  92.6016 267.5117 15.08842278203434
STARLINK-5131           
1 53996U 22125AJ  26161.28562608  .00000148  00000+0  27384-4 0  9997
2 53996  53.1627 158.2250 0001408  87.1844 272.9308 15.08831979203441
STARLINK-5130           
1 53997U 22125AK  26161.18723144 -.00000330  00000+0 -26622-5 0  9991
2 53997  53.1609 149.0528 0001415  88.3094 271.8060 15.08834520203567
STARLINK-5128           
1 53998U 22125AL  26161.27827006 -.00001080  00000+0 -49789-4 0  9995
2 53998  53.1623 158.1828 0001369  83.1725 276.9422 15.08825081203447
STARLINK-5079           
1 53999U 22125AM  26161.29299581  .00000259  00000+0  34394-4 0  9990
2 53999  53.1622 158.2724 0001335  87.8455 272.2689 15.08832749203440
STARLINK-5088           
1 54000U 22125AN  26161.24978800 -.00000210  00000+0  48964-5 0  9994
2 54000  53.1617 148.7375 0001255  85.9028 274.2107 15.08832315203570
STARLINK-5109           
1 54002U 22125AQ  26161.13933863  .00000719  00000+0  63311-4 0  9999
2 54002  53.1625 148.7828 0001276  89.0515 271.0622 15.08824975203562
STARLINK-5114           
1 54003U 22125AR  26161.28194212 -.00000018  00000+0  16998-4 0  9995
2 54003  53.1627 158.2054 0001404  87.0355 273.0797 15.08830932203447
STARLINK-5129           
1 54004U 22125AS  26161.27088476 -.00000192  00000+0  60405-5 0  9995
2 54004  53.1628 158.1347 0001333  87.8890 272.2254 15.08835053203444
STARLINK-5135           
1 54005U 22125AT  26161.27457291 -.00000892  00000+0 -37944-4 0  9990
2 54005  53.1624 158.1581 0001343  90.4717 269.6429 15.08826861203441
STARLINK-5096           
1 54006U 22125AU  26161.25983202  .00000274  00000+0  35294-4 0  9993
2 54006  53.1618 158.0767 0001392  72.7004 287.4140 15.08835061203435
STARLINK-5132           
1 54007U 22125AV  26161.26720090 -.00000250  00000+0  23703-5 0  9997
2 54007  53.1623 158.1138 0001309  86.4239 273.6902 15.08834700203448
STARLINK-5145           
1 54008U 22125AW  26161.26444336  .00000104  00000+0  24666-4 0  9999
2 54008  53.1620 148.1254 0001431  90.5649 269.5506 15.08831644203584
STARLINK-5099           
1 54009U 22125AX  26161.26351572 -.00000122  00000+0  10432-4 0  9996
2 54009  53.1624 158.0911 0001239  86.6444 273.4689 15.08835467203442
STARLINK-5127           
1 54010U 22125AY  26161.25708168  .00002167  00000+0  15418-3 0  9992
2 54010  53.1631 148.0888 0001281  75.1948 284.9185 15.08839468203581
STARLINK-5124           
1 54011U 22125AZ  26161.24610267 -.00000335  00000+0 -29796-5 0  9997
2 54011  53.1663 148.7151 0001215  84.5776 275.5354 15.08834161203575
STARLINK-5126           
1 54012U 22125BA  26161.22031236  .00000161  00000+0  28219-4 0  9992
2 54012  53.1622 148.5567 0001272  85.8639 274.2498 15.08832579203571
STARLINK-5098           
1 54013U 22125BB  26161.22767381  .00000940  00000+0  77119-4 0  9998
2 54013  53.1635 148.6039 0001020  81.8897 278.2210 15.08839331203573
