OBJECT_NAME,OBJECT_ID,EPOCH,MEAN_MOTION,ECCENTRICITY,INCLINATION,RA_OF_ASC_NODE,ARG_OF_PERICENTER,MEAN_ANOMALY,EPHEMERIS_TYPE,CLASSIFICATION_TYPE,NORAD_CAT_ID,ELEMENT_SET_NO,REV_AT_EPOCH,BSTAR,MEAN_MOTION_DOT,MEAN_MOTION_DDOT
STARLINK-5123,2022-125R,2026-06-10T07:14:32.375040,15.08831295,.00011502,53.1634,163.3094,65.5630,294.5481,0,U,53979,999,20337,.85416795E-4,.1071E-4,0
STARLINK-5133,2022-125S,2026-06-10T06:37:21.376704,15.08836894,.00013133,53.1618,163.1514,81.9217,278.1923,0,U,53980,999,20337,-.18270987E-3,-.3194E-4,0
STARLINK-5149,2022-125T,2026-06-10T03:25:57.061056,15.08830668,.0001267,53.1636,148.8058,91.3873,268.7264,0,U,53981,999,20356,.22155851E-4,.65E-6,0
STARLINK-5120,2022-125U,2026-06-10T04:07:03.915840,15.08832869,.00015856,53.1634,158.9381,89.4313,270.6861,0,U,53982,999,20341,.12491073E-4,-.89E-6,0
STARLINK-5142,2022-125W,2026-06-10T05:58:21.896256,15.08834909,.00013461,53.1636,158.7072,75.3420,284.7720,0,U,53984,999,20343,.13822928E-4,-.68E-6,0
STARLINK-5147,2022-125X,2026-06-10T06:08:58.609824,15.08834414,.00012507,53.1621,158.7532,82.3019,277.8114,0,U,53985,999,20343,.30433219E-4,.196E-5,0
STARLINK-5119,2022-125Y,2026-06-10T06:26:06.341280,15.08831961,.00013057,53.1623,148.1482,83.1505,276.9635,0,U,53986,999,20357,.26729082E-4,.137E-5,0
STARLINK-5113,2022-125AA,2026-06-10T04:17:40.607808,15.08831466,.00014378,53.1628,158.9815,82.0239,278.0915,0,U,53988,999,20341,-.23113781E-4,-.656E-5,0
STARLINK-5118,2022-125AD,2026-06-10T05:33:11.607840,15.08821908,.00014521,53.1653,148.5659,89.7322,270.3836,0,U,53991,999,20356,.1983042E-4,.27E-6,0
STARLINK-5108,2022-125AE,2026-06-10T04:01:45.827328,15.08829012,.00011975,53.1632,158.9130,82.9498,277.1630,0,U,53992,999,20341,.5006424E-5,-.208E-5,0
STARLINK-5121,2022-125AF,2026-06-10T06:38:44.201472,15.08842831,.00009696,53.1610,153.1803,94.1082,266.0020,0,U,53993,999,20350,-.89685477E-4,-.1715E-4,0
STARLINK-5125,2022-125AG,2026-06-10T06:56:36.610368,15.08842446,.00012661,53.1609,158.2495,96.2717,263.8418,0,U,53994,999,20344,-.16733567E-3,-.295E-4,0
STARLINK-5097,2022-125AH,2026-06-10T07:07:13.309248,15.08842278,.00012393,53.1611,158.2995,92.6016,267.5117,0,U,53995,999,20343,-.12192407E-3,-.2228E-4,0
STARLINK-5131,2022-125AJ,2026-06-10T06:51:18.093312,15.08831979,.0001408,53.1627,158.2250,87.1844,272.9308,0,U,53996,999,20344,.27383865E-4,.148E-5,0
STARLINK-5130,2022-125AK,2026-06-10T04:29:36.796416,15.08834520,.00014158,53.1609,149.0528,88.3094,271.8060,0,U,53997,999,20356,-.266223E-5,-.33E-5,0
STARLINK-5128,2022-125AL,2026-06-10T06:40:42.533184,15.08825081,.00013693,53.1623,158.1828,83.1725,276.9422,0,U,53998,999,20344,-.4978927E-4,-.108E-4,0
STARLINK-5079,2022-125AM,2026-06-10T07:01:54.837984,15.08832749,.00013356,53.1622,158.2724,87.8455,272.2689,0,U,53999,999,20344,.34394475E-4,.259E-5,0
STARLINK-5088,2022-125AN,2026-06-10T05:59:41.683200,15.08832315,.00012553,53.1617,148.7375,85.9028,274.2107,0,U,54000,999,20357,.4896436E-5,-.21E-5,0
STARLINK-5109,2022-125AQ,2026-06-10T03:20:38.857632,15.08824975,.00012761,53.1625,148.7828,89.0515,271.0622,0,U,54002,999,20356,.63311207E-4,.719E-5,0
STARLINK-5114,2022-125AR,2026-06-10T06:45:59.799168,15.08830932,.00014049,53.1627,158.2054,87.0355,273.0797,0,U,54003,999,20344,.1699837E-4,-.18E-6,0
STARLINK-5129,2022-125AS,2026-06-10T06:30:04.443264,15.08835053,.00013339,53.1628,158.1347,87.8890,272.2254,0,U,54004,999,20344,.6040466E-5,-.192E-5,0
STARLINK-5135,2022-125AT,2026-06-10T06:35:23.099424,15.08826861,.00013435,53.1624,158.1581,90.4717,269.6429,0,U,54005,999,20344,-.37943797E-4,-.892E-5,0
STARLINK-5096,2022-125AU,2026-06-10T06:14:09.486528,15.08835061,.00013922,53.1618,158.0767,72.7004,287.4140,0,U,54006,999,20343,.35294118E-4,.274E-5,0
STARLINK-5132,2022-125AV,2026-06-10T06:24:46.157760,15.08834700,.00013095,53.1623,158.1138,86.4239,273.6902,0,U,54007,999,20344,.2370266E-5,-.25E-5,0
STARLINK-5145,2022-125AW,2026-06-10T06:20:47.906304,15.08831644,.00014313,53.1620,148.1254,90.5649,269.5506,0,U,54008,999,20358,.24666177E-4,.104E-5,0
STARLINK-5099,2022-125AX,2026-06-10T06:19:27.758208,15.08835467,.00012393,53.1624,158.0911,86.6444,273.4689,0,U,54009,999,20344,.10432044E-4,-.122E-5,0
STARLINK-5127,2022-125AY,2026-06-10T06:10:11.857152,15.08839468,.00012815,53.1631,148.0888,75.1948,284.9185,0,U,54010,999,20358,.15417684E-3,.2167E-4,0
STARLINK-5124,2022-125AZ,2026-06-10T05:54:23.270688,15.08834161,.00012159,53.1663,148.7151,84.5776,275.5354,0,U,54011,999,20357,-.2979594E-5,-.335E-5,0
STARLINK-5126,2022-125BA,2026-06-10T05:17:14.987904,15.08832579,.00012728,53.1622,148.5567,85.8639,274.2498,0,U,54012,999,20357,.2821897E-4,.161E-5,0
STARLINK-5098,2022-125BB,2026-06-10T05:27:51.017184,15.08839331,.00010206,53.1635,148.6039,81.8897,278.2210,0,U,54013,999,20357,.77119349E-4,.94E-5,0
